{
  "type": "FeatureCollection",
  "features": [
    {
      "type": "Feature",
      "properties": {
        "norad_id": 31307,
        "name": "GALAXY 17 (G-17)",
        "group": "intelsat",
        "lat": -0.29641590677728974,
        "lon": -91.54273062380713,
        "alt_km": 35763.60829340662,
        "timestamp": "2025-12-16T17:51:10.591767+00:00",
        "meta_object_name": "GALAXY 17 (G-17)",
        "meta_object_id": "2007-016B",
        "meta_epoch": "2025-12-15T21:32:41.852832",
        "meta_mean_motion": 1.00272177,
        "meta_eccentricity": 0.00056102,
        "meta_inclination": 2.5079,
        "meta_ra_of_asc_node": 82.2506,
        "meta_arg_of_pericenter": 167.0269,
        "meta_mean_anomaly": 73.7174,
        "meta_ephemeris_type": 0,
        "meta_classification_type": "U",
        "meta_norad_cat_id": 31307,
        "meta_element_set_no": 999,
        "meta_rev_at_epoch": 6796,
        "meta_bstar": 0,
        "meta_mean_motion_dot": -1.85e-06,
        "meta_mean_motion_ddot": 0,
        "tle_line1": "1 31307U 07016B   25349.89770663 -.00000185  00000+0  00000+0 0  9990",
        "tle_line2": "2 31307   2.5079  82.2506 0005610 167.0269  73.7174  1.00272177 67969"
      },
      "geometry": {
        "type": "Point",
        "coordinates": [
          -91.54273062380713,
          -0.29641590677728974
        ]
      }
    },
    {
      "type": "Feature",
      "properties": {
        "norad_id": 31862,
        "name": "DIRECTV 10",
        "group": "intelsat",
        "lat": -0.014867323668497367,
        "lon": -109.37391287692621,
        "alt_km": 35785.24682462952,
        "timestamp": "2025-12-16T17:51:10.591779+00:00",
        "meta_object_name": "DIRECTV 10",
        "meta_object_id": "2007-032A",
        "meta_epoch": "2025-12-15T21:27:34.843392",
        "meta_mean_motion": 1.00271306,
        "meta_eccentricity": 3.013e-05,
        "meta_inclination": 0.008,
        "meta_ra_of_asc_node": 274.1653,
        "meta_arg_of_pericenter": 296.8087,
        "meta_mean_anomaly": 92.9267,
        "meta_ephemeris_type": 0,
        "meta_classification_type": "U",
        "meta_norad_cat_id": 31862,
        "meta_element_set_no": 999,
        "meta_rev_at_epoch": 4375,
        "meta_bstar": 0,
        "meta_mean_motion_dot": -8e-07,
        "meta_mean_motion_ddot": 0,
        "tle_line1": "1 31862U 07032A   25349.89415328 -.00000080  00000+0  00000+0 0  9992",
        "tle_line2": "2 31862   0.0080 274.1653 0000301 296.8087  92.9267  1.00271306 43756"
      },
      "geometry": {
        "type": "Point",
        "coordinates": [
          -109.37391287692621,
          -0.014867323668497367
        ]
      }
    },
    {
      "type": "Feature",
      "properties": {
        "norad_id": 32253,
        "name": "INTELSAT 11 (IS-11)",
        "group": "intelsat",
        "lat": 2.648291249830815,
        "lon": -158.56247578299144,
        "alt_km": 36106.21584571126,
        "timestamp": "2025-12-16T17:51:10.591791+00:00",
        "meta_object_name": "INTELSAT 11 (IS-11)",
        "meta_object_id": "2007-044B",
        "meta_epoch": "2025-12-15T17:49:21.155808",
        "meta_mean_motion": 0.99050209,
        "meta_eccentricity": 0.00086798,
        "meta_inclination": 3.0878,
        "meta_ra_of_asc_node": 80.9437,
        "meta_arg_of_pericenter": 167.1594,
        "meta_mean_anomaly": 316.3371,
        "meta_ephemeris_type": 0,
        "meta_classification_type": "U",
        "meta_norad_cat_id": 32253,
        "meta_element_set_no": 999,
        "meta_rev_at_epoch": 6663,
        "meta_bstar": 0,
        "meta_mean_motion_dot": 5e-07,
        "meta_mean_motion_ddot": 0,
        "tle_line1": "1 32253U 07044B   25349.74260597  .00000050  00000+0  00000+0 0  9996",
        "tle_line2": "2 32253   3.0878  80.9437 0008679 167.1594 316.3371  0.99050209 66636"
      },
      "geometry": {
        "type": "Point",
        "coordinates": [
          -158.56247578299144,
          2.648291249830815
        ]
      }
    },
    {
      "type": "Feature",
      "properties": {
        "norad_id": 32388,
        "name": "HORIZONS-2",
        "group": "intelsat",
        "lat": -0.6353734350998883,
        "lon": -80.37887485694374,
        "alt_km": 35766.43048824035,
        "timestamp": "2025-12-16T17:51:10.591803+00:00",
        "meta_object_name": "HORIZONS-2",
        "meta_object_id": "2007-063B",
        "meta_epoch": "2025-12-15T21:35:49.053984",
        "meta_mean_motion": 1.00273402,
        "meta_eccentricity": 0.00046067,
        "meta_inclination": 2.1294,
        "meta_ra_of_asc_node": 82.9313,
        "meta_arg_of_pericenter": 189.8451,
        "meta_mean_anomaly": 62.1811,
        "meta_ephemeris_type": 0,
        "meta_classification_type": "U",
        "meta_norad_cat_id": 32388,
        "meta_element_set_no": 999,
        "meta_rev_at_epoch": 6597,
        "meta_bstar": 0,
        "meta_mean_motion_dot": -2.32e-06,
        "meta_mean_motion_ddot": 0,
        "tle_line1": "1 32388U 07063B   25349.89987331 -.00000232  00000+0  00000+0 0  9997",
        "tle_line2": "2 32388   2.1294  82.9313 0004606 189.8451  62.1811  1.00273402 65977"
      },
      "geometry": {
        "type": "Point",
        "coordinates": [
          -80.37887485694374,
          -0.6353734350998883
        ]
      }
    },
    {
      "type": "Feature",
      "properties": {
        "norad_id": 32729,
        "name": "DIRECTV 11",
        "group": "intelsat",
        "lat": -0.01451419349438604,
        "lon": -105.76963069079909,
        "alt_km": 35786.064019021105,
        "timestamp": "2025-12-16T17:51:10.591815+00:00",
        "meta_object_name": "DIRECTV 11",
        "meta_object_id": "2008-013A",
        "meta_epoch": "2025-12-15T21:28:34.747104",
        "meta_mean_motion": 1.0027048,
        "meta_eccentricity": 5.861e-05,
        "meta_inclination": 0.0419,
        "meta_ra_of_asc_node": 173.3202,
        "meta_arg_of_pericenter": 0.3423,
        "meta_mean_anomaly": 134.0909,
        "meta_ephemeris_type": 0,
        "meta_classification_type": "U",
        "meta_norad_cat_id": 32729,
        "meta_element_set_no": 999,
        "meta_rev_at_epoch": 4375,
        "meta_bstar": 0,
        "meta_mean_motion_dot": -1.03e-06,
        "meta_mean_motion_ddot": 0,
        "tle_line1": "1 32729U 08013A   25349.89484661 -.00000103  00000+0  00000+0 0  9997",
        "tle_line2": "2 32729   0.0419 173.3202 0000586   0.3423 134.0909  1.00270480 43755"
      },
      "geometry": {
        "type": "Point",
        "coordinates": [
          -105.76963069079909,
          -0.01451419349438604
        ]
      }
    },
    {
      "type": "Feature",
      "properties": {
        "norad_id": 32951,
        "name": "GALAXY 18 (G-18)",
        "group": "intelsat",
        "lat": -0.03830674416257679,
        "lon": -129.62812789779642,
        "alt_km": 35777.252276341525,
        "timestamp": "2025-12-16T17:51:10.591827+00:00",
        "meta_object_name": "GALAXY 18 (G-18)",
        "meta_object_id": "2008-024A",
        "meta_epoch": "2025-12-15T21:21:27.927648",
        "meta_mean_motion": 1.00271537,
        "meta_eccentricity": 0.00028398,
        "meta_inclination": 0.0241,
        "meta_ra_of_asc_node": 4.585,
        "meta_arg_of_pericenter": 268.4955,
        "meta_mean_anomaly": 9.0562,
        "meta_ephemeris_type": 0,
        "meta_classification_type": "U",
        "meta_norad_cat_id": 32951,
        "meta_element_set_no": 999,
        "meta_rev_at_epoch": 4401,
        "meta_bstar": 0,
        "meta_mean_motion_dot": 0,
        "meta_mean_motion_ddot": 0,
        "tle_line1": "1 32951U 08024A   25349.88990657  .00000000  00000+0  00000+0 0  9997",
        "tle_line2": "2 32951   0.0241   4.5850 0002839 268.4955   9.0562  1.00271537 44019"
      },
      "geometry": {
        "type": "Point",
        "coordinates": [
          -129.62812789779642,
          -0.03830674416257679
        ]
      }
    },
    {
      "type": "Feature",
      "properties": {
        "norad_id": 33153,
        "name": "INTELSAT 25 (IS-25)",
        "group": "intelsat",
        "lat": -1.934393927440886,
        "lon": -38.05215501783831,
        "alt_km": 35775.13108650522,
        "timestamp": "2025-12-16T17:51:10.591839+00:00",
        "meta_object_name": "INTELSAT 25 (IS-25)",
        "meta_object_id": "2008-034A",
        "meta_epoch": "2025-12-15T21:47:55.393728",
        "meta_mean_motion": 1.00271314,
        "meta_eccentricity": 0.0004865,
        "meta_inclination": 2.2356,
        "meta_ra_of_asc_node": 82.6164,
        "meta_arg_of_pericenter": 182.9535,
        "meta_mean_anomaly": 114.7228,
        "meta_ephemeris_type": 0,
        "meta_classification_type": "U",
        "meta_norad_cat_id": 33153,
        "meta_element_set_no": 999,
        "meta_rev_at_epoch": 6385,
        "meta_bstar": 0,
        "meta_mean_motion_dot": -2.03e-06,
        "meta_mean_motion_ddot": 0,
        "tle_line1": "1 33153U 08034A   25349.90828002 -.00000203  00000+0  00000+0 0  9996",
        "tle_line2": "2 33153   2.2356  82.6164 0004865 182.9535 114.7228  1.00271314 63854"
      },
      "geometry": {
        "type": "Point",
        "coordinates": [
          -38.05215501783831,
          -1.934393927440886
        ]
      }
    }
  ]
}